[{"OBJECT_NAME":"STARLINK-3181","OBJECT_ID":"2022-010F","EPOCH":"2026-03-09T21:39:25.644960","MEAN_MOTION":15.08845307,"ECCENTRICITY":0.00014628,"INCLINATION":53.2173,"RA_OF_ASC_NODE":278.1667,"ARG_OF_PERICENTER":80.3897,"MEAN_ANOMALY":279.7261,"EPHEMERIS_TYPE":0,"CLASSIFICATION_TYPE":"U","NORAD_CAT_ID":51461,"ELEMENT_SET_NO":999,"REV_AT_EPOCH":22685,"BSTAR":0.00014559023,"MEAN_MOTION_DOT":2.03e-5,"MEAN_MOTION_DDOT":0},{"OBJECT_NAME":"FENGYUN 1C DEB","OBJECT_ID":"1999-025CFH","EPOCH":"2026-03-07T23:38:47.437728","MEAN_MOTION":14.44985594,"ECCENTRICITY":0.03068092,"INCLINATION":98.0605,"RA_OF_ASC_NODE":76.6957,"ARG_OF_PERICENTER":189.4978,"MEAN_ANOMALY":170.0331,"EPHEMERIS_TYPE":0,"CLASSIFICATION_TYPE":"U","NORAD_CAT_ID":31758,"ELEMENT_SET_NO":999,"REV_AT_EPOCH":95430,"BSTAR":0.0018761349,"MEAN_MOTION_DOT":0.00011691,"MEAN_MOTION_DDOT":0}]
